{
  "norad_id": 64864,
  "name": "STARLINK-34628",
  "history": [
    {
      "epoch": "2026-04-11T21:07:32.362752Z",
      "apogee_km": 550.6827119662694,
      "perigee_km": 548.2829844508487,
      "latitude_deg": 1.6310668330102247e-05,
      "longitude_deg": 161.27367453672417,
      "height_km": 552.3633806736918,
      "semi_major_axis_km": 6927.619848208558,
      "eccentricity": 0.0001732,
      "inclination_deg": 97.6044,
      "raan_deg": 318.2519,
      "arg_perigee_deg": 81.2847,
      "mean_anomaly_deg": 278.8576,
      "mean_motion_rev_day": 15.05659228
    },
    {
      "epoch": "2026-04-13T00:14:26.327616Z",
      "apogee_km": 550.7367247571547,
      "perigee_km": 548.2535842876887,
      "latitude_deg": -2.6556188832861573e-05,
      "longitude_deg": 114.54905285790309,
      "height_km": 552.3950613340588,
      "semi_major_axis_km": 6927.632154522422,
      "eccentricity": 0.00017922,
      "inclination_deg": 97.6047,
      "raan_deg": 319.3657,
      "arg_perigee_deg": 82.4878,
      "mean_anomaly_deg": 277.6552,
      "mean_motion_rev_day": 15.05655216
    },
    {
      "epoch": "2026-04-14T20:54:02.405088Z",
      "apogee_km": 550.897623160803,
      "perigee_km": 548.1140962597719,
      "latitude_deg": -3.118681954466266e-05,
      "longitude_deg": 164.64911065856757,
      "height_km": 552.4060277752551,
      "semi_major_axis_km": 6927.642859710287,
      "eccentricity": 0.0002009,
      "inclination_deg": 97.6042,
      "raan_deg": 321.2002,
      "arg_perigee_deg": 83.3286,
      "mean_anomaly_deg": 276.8169,
      "mean_motion_rev_day": 15.05651726
    },
    {
      "epoch": "2026-04-15T20:49:32.507040Z",
      "apogee_km": 550.9485907300459,
      "perigee_km": 548.0639200784944,
      "latitude_deg": 3.129283285626243e-05,
      "longitude_deg": 165.7738134963132,
      "height_km": 552.4037995405093,
      "semi_major_axis_km": 6927.643255404269,
      "eccentricity": 0.0002082,
      "inclination_deg": 97.6037,
      "raan_deg": 322.1829,
      "arg_perigee_deg": 83.4636,
      "mean_anomaly_deg": 276.6828,
      "mean_motion_rev_day": 15.05651597
    },
    {
      "epoch": "2026-04-16T20:45:02.645280Z",
      "apogee_km": 551.0095803683553,
      "perigee_km": 548.0002127284943,
      "latitude_deg": -9.029031326314531e-06,
      "longitude_deg": 166.89837833597002,
      "height_km": 552.4037414967663,
      "semi_major_axis_km": 6927.6418965484245,
      "eccentricity": 0.0002172,
      "inclination_deg": 97.6039,
      "raan_deg": 323.1656,
      "arg_perigee_deg": 83.7915,
      "mean_anomaly_deg": 276.3559,
      "mean_motion_rev_day": 15.0565204
    },
    {
      "epoch": "2026-04-17T20:40:32.754144Z",
      "apogee_km": 551.0847635952223,
      "perigee_km": 547.9207719604838,
      "latitude_deg": -5.3450592651998405e-05,
      "longitude_deg": 168.02266580861956,
      "height_km": 552.3790658260187,
      "semi_major_axis_km": 6927.639767777853,
      "eccentricity": 0.00022836,
      "inclination_deg": 97.6038,
      "raan_deg": 324.1479,
      "arg_perigee_deg": 83.2813,
      "mean_anomaly_deg": 276.8673,
      "mean_motion_rev_day": 15.05652734
    },
    {
      "epoch": "2026-04-18T20:36:02.578752Z",
      "apogee_km": 551.1850006903314,
      "perigee_km": 547.7863090158608,
      "latitude_deg": -2.982888466970582e-06,
      "longitude_deg": 169.14732722617822,
      "height_km": 552.3115213073671,
      "semi_major_axis_km": 6927.622654853096,
      "eccentricity": 0.0002453,
      "inclination_deg": 97.6027,
      "raan_deg": 325.1294,
      "arg_perigee_deg": 82.0428,
      "mean_anomaly_deg": 278.1077,
      "mean_motion_rev_day": 15.05658313
    },
    {
      "epoch": "2026-04-19T20:31:32.772288Z",
      "apogee_km": 551.3791802498381,
      "perigee_km": 547.6327109448594,
      "latitude_deg": -1.3766344951023185e-05,
      "longitude_deg": 170.2719541365145,
      "height_km": 552.3900952990007,
      "semi_major_axis_km": 6927.642945597348,
      "eccentricity": 0.0002704,
      "inclination_deg": 97.6006,
      "raan_deg": 326.1124,
      "arg_perigee_deg": 84.592,
      "mean_anomaly_deg": 275.5615,
      "mean_motion_rev_day": 15.05651698
    },
    {
      "epoch": "2026-04-20T07:41:26.710656Z",
      "apogee_km": 551.1660720247164,
      "perigee_km": 547.8502239510835,
      "latitude_deg": -4.552062994571401e-05,
      "longitude_deg": 2.7958847038155192,
      "height_km": 552.3988820625815,
      "semi_major_axis_km": 6927.6451479879,
      "eccentricity": 0.00023932,
      "inclination_deg": 97.5977,
      "raan_deg": 326.5696,
      "arg_perigee_deg": 84.093,
      "mean_anomaly_deg": 276.0569,
      "mean_motion_rev_day": 15.0565098
    },
    {
      "epoch": "2026-04-21T20:22:32.810304Z",
      "apogee_km": 551.1866678442639,
      "perigee_km": 547.8239902577425,
      "latitude_deg": 5.4151909912389756e-05,
      "longitude_deg": 172.51895200640078,
      "height_km": 552.4019327659004,
      "semi_major_axis_km": 6927.642329051003,
      "eccentricity": 0.0002427,
      "inclination_deg": 97.5949,
      "raan_deg": 328.0747,
      "arg_perigee_deg": 84.3764,
      "mean_anomaly_deg": 275.774,
      "mean_motion_rev_day": 15.05651899
    },
    {
      "epoch": "2026-04-22T20:18:02.919168Z",
      "apogee_km": 550.8423436823277,
      "perigee_km": 548.1779705856943,
      "latitude_deg": 1.7247637837914436e-05,
      "longitude_deg": 173.64033477403487,
      "height_km": 552.3835281128453,
      "semi_major_axis_km": 6927.647157134011,
      "eccentricity": 0.0001923,
      "inclination_deg": 97.5863,
      "raan_deg": 329.0541,
      "arg_perigee_deg": 81.8372,
      "mean_anomaly_deg": 278.3073,
      "mean_motion_rev_day": 15.05650325
    },
    {
      "epoch": "2026-04-23T02:40:50.879136Z",
      "apogee_km": 551.1941601554272,
      "perigee_km": 547.8219211025498,
      "latitude_deg": -5.041688223518836e-05,
      "longitude_deg": 77.94069313059475,
      "height_km": 552.3634461384635,
      "semi_major_axis_km": 6927.645040628988,
      "eccentricity": 0.00024339,
      "inclination_deg": 97.5862,
      "raan_deg": 329.3163,
      "arg_perigee_deg": 82.975,
      "mean_anomaly_deg": 277.1753,
      "mean_motion_rev_day": 15.05651015
    },
    {
      "epoch": "2026-04-24T12:10:32.583648Z",
      "apogee_km": 551.2420284831887,
      "perigee_km": 547.7172571353267,
      "latitude_deg": -2.6883921438318845e-05,
      "longitude_deg": -64.488368225347,
      "height_km": 552.1876211987127,
      "semi_major_axis_km": 6927.616642809257,
      "eccentricity": 0.0002544,
      "inclination_deg": 97.5785,
      "raan_deg": 330.6866,
      "arg_perigee_deg": 78.4223,
      "mean_anomaly_deg": 281.7289,
      "mean_motion_rev_day": 15.05660273
    },
    {
      "epoch": "2026-04-25T13:41:44.883168Z",
      "apogee_km": 551.1826775873851,
      "perigee_km": 547.7895277916887,
      "latitude_deg": -5.782436558501271e-05,
      "longitude_deg": -87.2932851880099,
      "height_km": 552.2369993094563,
      "semi_major_axis_km": 6927.623102689537,
      "eccentricity": 0.0002449,
      "inclination_deg": 97.5746,
      "raan_deg": 331.731,
      "arg_perigee_deg": 79.4351,
      "mean_anomaly_deg": 280.7151,
      "mean_motion_rev_day": 15.05658167
    },
    {
      "epoch": "2026-04-26T20:00:03.008160Z",
      "apogee_km": 550.811611247168,
      "perigee_km": 548.1673362221427,
      "latitude_deg": -9.303005281700045e-06,
      "longitude_deg": 178.12690448079056,
      "height_km": 552.1916124903008,
      "semi_major_axis_km": 6927.626473734655,
      "eccentricity": 0.00019085,
      "inclination_deg": 97.5701,
      "raan_deg": 332.9713,
      "arg_perigee_deg": 74.1569,
      "mean_anomaly_deg": 285.9868,
      "mean_motion_rev_day": 15.05657068
    }
  ]
}